BEIDOU 3 (C01)          
1 36287U 10001A   22185.53845154 -.00000271  00000+0  00000+0 0  9990
2 36287   1.9107  48.5170 0003908  28.9215 179.3607  1.00271186 45680
BEIDOU 5 (C06)          
1 36828U 10036A   22185.41160749 -.00000062  00000+0  00000+0 0  9994
2 36828  54.1986 176.0722 0030914 190.7178 169.2944  1.00294367 43753
BEIDOU 6 (C04)          
1 37210U 10057A   22184.82485369 -.00000103  00000+0  00000+0 0  9991
2 37210   0.8795  49.8166 0004077 129.5350 199.4226  1.00271557 42806
BEIDOU 7 (C07)          
1 37256U 10068A   22184.74493824 -.00000187  00000+0  00000+0 0  9991
2 37256  50.1709 289.4569 0022845 197.0698 167.3986  1.00301806 42310
BEIDOU 8 (C08)          
1 37384U 11013A   22184.07543028 -.00000171  00000+0  00000+0 0  9995
2 37384  60.3115  54.1040 0018266 182.8203 176.0960  1.00252355 41179
BEIDOU 9 (C09)          
1 37763U 11038A   22183.44886560 -.00000029  00000+0  00000+0 0  9996
2 37763  54.4782 178.5842 0098622 228.2655 130.8283  1.00276165 40153
BEIDOU 10 (C10)         
1 37948U 11073A   22184.68868556 -.00000144  00000+0  00000+0 0  9990
2 37948  50.3005 289.0960 0084268 217.9961 116.6957  1.00290663 38916
BEIDOU 11 (C05)         
1 38091U 12008A   22184.92757502  .00000067  00000+0  00000+0 0  9997
2 38091   1.5988  68.1829 0014326 339.0506 267.2616  1.00269800 37994
BEIDOU 12 (C11)         
1 38250U 12018A   22185.05531024 -.00000072  00000+0  00000+0 0  9996
2 38250  56.6917 353.0119 0020176 252.0711 289.3867  1.86234311 69399
BEIDOU 13 (C12)         
1 38251U 12018B   22184.96782968 -.00000073  00000+0  00000+0 0  9992
2 38251  56.6081 352.3371 0010929 253.6775 273.3351  1.86234075 69394
BEIDOU 15 (C14)         
1 38775U 12050B   22183.68184975  .00000001  00000+0  00000+0 0  9991
2 38775  55.4084 111.1727 0015076 324.5795 256.4510  1.86231317 66740
BEIDOU 16 (C02)         
1 38953U 12059A   22184.80968082 -.00000167  00000+0  00000+0 0  9996
2 38953   2.0275  84.3324 0011059 303.6218 269.3885  1.00270622 35424
BEIDOU 17 (C31)         
1 40549U 15019A   22184.81369067 -.00000166  00000+0  00000+0 0  9997
2 40549  51.8586 312.5666 0037122 193.6993 161.5811  1.00294068 26596
BEIDOU 18 (C57)         
1 40748U 15037A   22185.12170852 -.00000074  00000+0  00000+0 0  9993
2 40748  55.8620 351.1892 0004721  48.6366 130.9420  1.86233267 47229
BEIDOU 19 (C58)         
1 40749U 15037B   22184.48728752 -.00000076  00000+0  00000+0 0  9992
2 40749  55.8608 351.1996 0003580   1.6140 247.0675  1.86232072 47205
BEIDOU 20 (C18)         
1 40938U 15053A   22184.71924331 -.00000121  00000+0  00000+0 0  9998
2 40938  51.4742 275.6899 0045470 197.0724 162.7968  1.00289401 24869
BEIDOU IGSO-6 (C13)     
1 41434U 16021A   22184.08012241 -.00000156  00000+0  00000+0 0  9992
2 41434  58.1210  52.6739 0043403 217.5542 135.7819  1.00280024 22989
BEIDOU-2 G7 (C03)       
1 41586U 16037A   22185.03019656 -.00000345  00000+0  00000+0 0  9990
2 41586   1.4092  65.7765 0008915   0.2186 337.4488  1.00273605 22306
BEIDOU-3 M1 (C19)       
1 43001U 17069A   22184.51265416  .00000006  00000+0  00000+0 0  9992
2 43001  55.5625 111.1472 0011416 295.7489 278.5779  1.86231695 31697
BEIDOU-3 M2 (C20)       
1 43002U 17069B   22184.59890286  .00000007  00000+0  00000+0 0  9991
2 43002  55.5621 111.1802 0009549 317.4732 357.6900  1.86231581 31686
BEIDOU-3 M3 (C27)       
1 43107U 18003A   22185.48993800 -.00000073  00000+0  00000+0 0  9995
2 43107  55.3114 352.0855 0005665  62.8764 295.8279  1.86232437 30460
BEIDOU-3 M4 (C28)       
1 43108U 18003B   22184.63295887 -.00000077  00000+0  00000+0 0  9996
2 43108  55.3047 352.1041 0001910 233.9109 314.0383  1.86231272 30452
BEIDOU-3 M5 (C21)       
1 43207U 18018A   22184.26069406  .00000005  00000+0  00000+0 0  9997
2 43207  55.5218 111.2698 0007118 336.2342  23.7290  1.86231624 29830
BEIDOU-3 M6 (C22)       
1 43208U 18018B   22183.25342995 -.00000002  00000+0  00000+0 0  9991
2 43208  55.5200 111.3080 0009266 307.2556  52.6513  1.86231594 29812
BEIDOU-3 M7 (C29)       
1 43245U 18029A   22184.55264797 -.00000077  00000+0  00000+0 0  9993
2 43245  55.2242 349.8862 0001152  89.0190 271.7079  1.86232653 28993
BEIDOU-3 M8 (C30)       
1 43246U 18029B   22183.19073899 -.00000084  00000+0  10000-3 0  9997
2 43246  55.2210 349.9618 0004199  15.9042 198.2662  1.86232783 28958
BEIDOU IGSO-7 (C16)     
1 43539U 18057A   22184.90535622 -.00000067  00000+0  00000+0 0  9996
2 43539  55.0788 175.5554 0049674 227.9423 313.4440  1.00253230 14673
BEIDOU-3 M9 (C23)       
1 43581U 18062A   22184.70535256  .00000051  00000+0  00000+0 0  9992
2 43581  54.2708 231.5288 0005011 266.7326  93.9871  1.86231896 26736
BEIDOU-3 M10 (C24)      
1 43582U 18062B   22182.40685891  .00000050  00000+0  00000+0 0  9998
2 43582  54.2712 231.5972 0004107 346.4694   4.9907  1.86232136 26685
BEIDOU-3 M11 (C25)      
1 43602U 18067A   22185.05265753  .00000054  00000+0  00000+0 0  9995
2 43602  54.3529 230.1223 0006495   2.8534   3.9009  1.86231671 26233
BEIDOU-3 M12 (C26)      
1 43603U 18067B   22184.64146475  .00000053  00000+0  00000+0 0  9998
2 43603  54.3502 230.1029 0003822 345.9871  15.4531  1.86231637 26246
BEIDOU-3 M13 (C32)      
1 43622U 18072A   22185.35738788  .00000008  00000+0  00000+0 0  9998
2 43622  55.4892 110.7865 0008016 293.8118 216.8532  1.86231796 25767
BEIDOU-3 M14 (C33)      
1 43623U 18072B   22184.23418194  .00000004  00000+0  00000+0 0  9997
2 43623  55.4902 110.8162 0006200 315.7158 252.1272  1.86231776 25742
BEIDOU-3 M15 (C34)      
1 43647U 18078A   22184.61973398 -.00000077  00000+0  10000-3 0  9999
2 43647  55.1194 350.0402 0006354  16.0760 345.8338  1.86233136 25265
BEIDOU-3 M16 (C35)      
1 43648U 18078B   22184.75333339 -.00000077  00000+0  00000+0 0  9995
2 43648  55.1156 350.0425 0004829  31.3426 327.8880  1.86232163 25275
BEIDOU-3 G1 (C59)       
1 43683U 18085A   22185.15952043 -.00000268  00000+0  00000+0 0  9998
2 43683   0.9051 163.2376 0003767 358.9444 317.3406  1.00277194 13570
BEIDOU-3 M17 (C36)      
1 43706U 18093A   22183.18583970  .00000049  00000+0  00000+0 0  9999
2 43706  54.3517 231.4663 0010322 271.0804  15.7489  1.86231958 24599
BEIDOU-3 M18 (C37)      
1 43707U 18093B   22184.75049142  .00000051  00000+0  00000+0 0  9995
2 43707  54.3535 231.4039 0008537 294.4563  52.6321  1.86232201 24624
BEIDOU-3 IGSO-1 (C38)   
1 44204U 19023A   22184.58295411 -.00000213  00000+0  00000+0 0  9996
2 44204  56.5793  52.7971 0019120 197.2928 357.5343  1.00252962 11877
BEIDOU-2 G8             
1 44231U 19027A   22185.53932354 -.00000237  00000+0  00000+0 0  9996
2 44231   0.9026  76.8542 0004852 110.9447  73.4122  1.00269550 11593
BEIDOU-3 IGSO-2 (C39)   
1 44337U 19035A   22183.88297721 -.00000085  00000+0  00000+0 0  9991
2 44337  55.1255 171.5858 0025815 194.5808 348.3723  1.00301063 11205
BEIDOU-3 M23 (C45)      
1 44542U 19061A   22184.84171112  .00000052  00000+0  00000+0 0  9993
2 44542  54.5796 231.5553 0008091 325.0268  35.0025  1.86231340 18894
BEIDOU-3 M24 (C46)      
1 44543U 19061B   22184.95414556  .00000052  00000+0  00000+0 0  9998
2 44543  54.5774 231.5205 0005594 308.1928  38.5535  1.86231899 18887
BEIDOU-3 IGSO-3         
1 44709U 19073A   22184.48501902 -.00000184  00000+0  10000-3 0  9997
2 44709  57.2410 296.2193 0023290 175.8906 100.1302  1.00251666  9956
BEIDOU-3 M21            
1 44793U 19078A   22184.71013338 -.00000077  00000+0  10000-3 0  9993
2 44793  54.9668 350.0577 0006531  22.8761 353.4994  1.86232248 17758
BEIDOU-3 M22            
1 44794U 19078B   22184.71825490 -.00000077  00000+0  00000+0 0  9999
2 44794  54.9417 350.0485 0004605  22.9698 270.5438  1.86232695 17746
BEIDOU-3 M19            
1 44864U 19090A   22185.28054816  .00000008  00000+0  00000+0 0  9993
2 44864  55.4237 110.9992 0017962 274.2644 230.6933  1.86231910 17341
BEIDOU-3 M20            
1 44865U 19090B   22185.16187782  .00000008  00000+0  00000+0 0  9990
2 44865  55.4255 111.0348 0016376 287.9052 227.3512  1.86231825 17319
BEIDOU-3 G2             
1 45344U 20017A   22184.85396595 -.00000132  00000+0  00000+0 0  9992
2 45344   2.0555 352.8344 0004722 118.6322 197.8897  1.00271605  8779
BEIDOU-3 G3             
1 45807U 20040A   22184.84684816 -.00000343  00000+0  00000+0 0  9991
2 45807   1.4055 303.6310 0006302 327.2961  66.2229  1.00265264  7592
